     2.11           N: GPS NAV DATA                         RINEX VERSION / TYPE
teqc  2019Feb25     root                20210129 21:18:50UTCPGM / RUN BY / DATE
Linux 2.4.21-27.ELsmp|Opteron|gcc|Linux 64|=+               COMMENT
teqc  2019Feb25     CORS-ADM Account    20210129 15:49:05UTCCOMMENT
     2.10           N: GPS NAV DATA                         COMMENT
rvacn.e(1404.07)                        2021-01-29T12:33 UTCCOMMENT
This file contains the validated broadcast navigation       COMMENT
messages from the following files:                          COMMENT
abmf0260.21n, abpo0260.21n, albh0260.21n, areq0260.21n,     COMMENT
badg0260.21n, bake0260.21n, bogt0260.21n, brew0260.21n,     COMMENT
chum0260.21n, chur0260.21n, cro10260.21n, dgar0260.21n,     COMMENT
drao0260.21n, dubo0260.21n, fair0260.21n, falk0260.21n,     COMMENT
flin0260.21n, glps0260.21n, glsv0260.21n, gode0260.21n,     COMMENT
godz0260.21n, gold0260.21n, hlfx0260.21n, holb0260.21n,     COMMENT
hrao0260.21n, iisc0260.21n, invk0260.21n, jplm0260.21n,     COMMENT
kokb0260.21n, kokv0260.21n, maui0260.21n, mbar0260.21n,     COMMENT
mcm40260.21n, mdo10260.21n, mkea0260.21n, nano0260.21n,     COMMENT
nico0260.21n, nya10260.21n, nyal0260.21n, ohi20260.21n,     COMMENT
pie10260.21n, pimo0260.21n, pol20260.21n, polv0260.21n,     COMMENT
sant0260.21n, sch20260.21n, stjo0260.21n, suth0260.21n,     COMMENT
tcms0260.21n, tro10260.21n, unbj0260.21n, vndp0260.21n,     COMMENT
whit0260.21n, will0260.21n, yell0260.21n, zamb0260.21n      COMMENT
    8.3820D-09 -7.4510D-09 -5.9600D-08  5.9600D-08          ION ALPHA
    8.8060D+04 -3.2770D+04 -1.9660D+05  1.9660D+05          ION BETA
    1.862645149230D-09 2.664535259100D-15   405504     2142 DELTA-UTC: A0,A1,T,W
                                                            END OF HEADER
 4 21  1 26  8  0  0.0-1.756101846695D-04-2.842170943040D-12 0.000000000000D+00
    1.670000000000D+02 1.418750000000D+01 4.705195990299D-09-4.874048578887D-01
    5.792826414108D-07 1.070400816388D-03 6.932765245438D-06 5.153588403702D+03
    2.016000000000D+05 3.725290298462D-09 8.104369045558D-01-9.313225746155D-09
    9.602239265979D-01 2.456875000000D+02-3.039359531901D+00-7.983903990219D-09
    3.153702792951D-10 1.000000000000D+00 2.142000000000D+03 0.000000000000D+00
    2.000000000000D+00 0.000000000000D+00-4.190951585770D-09 4.230000000000D+02
    1.944180000000D+05 4.000000000000D+00
 5 21  1 26  8  0  0.0-3.199093043804D-05-1.023181539495D-12 0.000000000000D+00
    8.800000000000D+01-8.834375000000D+01 4.471971989869D-09 6.076298736061D-01
   -4.358589649200D-06 6.009429926053D-03 1.068599522114D-05 5.153812078476D+03
    2.016000000000D+05-7.264316082001D-08-3.043733194676D-01 5.029141902924D-08
    9.554217283042D-01 1.706250000000D+02 8.863841532750D-01-7.952831267344D-09
    1.364342544629D-10 1.000000000000D+00 2.142000000000D+03 0.000000000000D+00
    2.000000000000D+00 0.000000000000D+00-1.117587089539D-08 8.800000000000D+01
    1.944180000000D+05 4.000000000000D+00
 6 21  1 26  8  0  0.0-4.211906343699D-06 5.684341886081D-13 0.000000000000D+00
    1.700000000000D+01-9.400000000000D+01 4.258748822554D-09-1.843820815704D+00
   -4.781410098076D-06 2.278026193380D-03 3.261491656303D-06 5.153697153091D+03
    2.016000000000D+05-6.705522537231D-08-1.316141531972D+00 4.097819328308D-08
    9.822927758198D-01 3.290937500000D+02-1.103452098798D+00-8.049263855577D-09
   -1.625067690592D-10 1.000000000000D+00 2.142000000000D+03 0.000000000000D+00
    2.000000000000D+00 0.000000000000D+00 3.725290298462D-09 1.700000000000D+01
    1.944180000000D+05 4.000000000000D+00
 7 21  1 26  8  0  0.0 3.569060936570D-05 1.398348103976D-11 0.000000000000D+00
    8.600000000000D+01-1.653125000000D+01 4.789128057835D-09-2.847326390825D+00
   -9.741634130478D-07 1.436999859288D-02 7.081776857376D-06 5.153602996826D+03
    2.016000000000D+05 2.421438694000D-08 1.833936742827D+00-1.806765794754D-07
    9.516393887203D-01 2.372500000000D+02-2.355079664693D+00-7.842469527478D-09
   -4.000166622996D-10 1.000000000000D+00 2.142000000000D+03 0.000000000000D+00
    2.800000000000D+00 0.000000000000D+00-1.117587089539D-08 8.600000000000D+01
    1.944180000000D+05 4.000000000000D+00
 8 21  1 26  8  0  0.0-7.982365787029D-06-1.364242052659D-12 0.000000000000D+00
    3.800000000000D+01 9.378125000000D+01 4.455542734096D-09 9.780748436003D-03
    4.908069968224D-06 6.136395037174D-03 3.069639205933D-06 5.153783260345D+03
    2.016000000000D+05 6.705522537231D-08-2.381283279241D+00 1.303851604462D-08
    9.683705399485D-01 3.218125000000D+02-3.522357682622D-02-8.293916903501D-09
    2.742971398626D-10 1.000000000000D+00 2.142000000000D+03 0.000000000000D+00
    2.000000000000D+00 0.000000000000D+00 5.122274160385D-09 3.800000000000D+01
    1.944180000000D+05 4.000000000000D+00
 9 21  1 26  8  0  0.0-3.166534006596D-04-3.865352482535D-12 0.000000000000D+00
    2.100000000000D+01 1.556250000000D+01 4.879488964587D-09 4.188196741834D-01
    7.171183824539D-07 1.991025870666D-03 7.096678018570D-06 5.153571907043D+03
    2.016000000000D+05-4.284083843231D-08 7.605750300315D-01 5.587935447693D-09
    9.530824257429D-01 2.379375000000D+02 1.800961052274D+00-8.106409093049D-09
    3.632294156774D-10 1.000000000000D+00 2.142000000000D+03 0.000000000000D+00
    2.000000000000D+00 0.000000000000D+00 1.396983861923D-09 2.100000000000D+01
    1.944180000000D+05 4.000000000000D+00
10 21  1 26  8  0  0.0-4.755565896630D-05-8.412825991400D-12 0.000000000000D+00
    1.000000000000D+02-1.008437500000D+02 4.070526696633D-09 2.042729825359D+00
   -5.140900611877D-06 6.416961667128D-03 1.098960638046D-05 5.153681278229D+03
    2.016000000000D+05-2.048909664154D-07-2.720997710762D-01 3.725290298462D-08
    9.684002254822D-01 1.749687500000D+02-2.608899778439D+00-7.673533919203D-09
    2.439387324559D-10 1.000000000000D+00 2.142000000000D+03 0.000000000000D+00
    2.000000000000D+00 0.000000000000D+00 2.328306436539D-09 1.000000000000D+02
    1.955820000000D+05 4.000000000000D+00
11 21  1 26  8  0  0.0-4.248693585396D-05 1.057287590811D-11 0.000000000000D+00
    4.000000000000D+01-2.437500000000D+00 5.719166797682D-09-2.802231180314D+00
   -1.490116119385D-08 1.537622523028D-02-7.767230272293D-07 5.153730571747D+03
    2.016000000000D+05 8.568167686462D-08-1.798616058961D+00 2.048909664154D-07
    9.138838927610D-01 3.662187500000D+02 2.083539756754D+00-8.667503893471D-09
    8.178912113090D-11 1.000000000000D+00 2.142000000000D+03 0.000000000000D+00
    2.000000000000D+00 6.300000000000D+01-1.257285475731D-08 4.000000000000D+01
    1.944180000000D+05 4.000000000000D+00
12 21  1 26  8  0  0.0 7.737427949905D-06-5.229594535194D-12 0.000000000000D+00
    9.500000000000D+01 1.039375000000D+02 3.696582548929D-09 2.766937172759D+00
    5.312263965607D-06 8.260837988928D-03 1.041591167450D-05 5.153573966980D+03
    2.016000000000D+05 7.078051567078D-08 2.943076462308D+00-4.656612873077D-08
    9.754863753688D-01 1.845625000000D+02 1.174970699503D+00-7.429238029013D-09
   -1.239337337660D-10 1.000000000000D+00 2.142000000000D+03 0.000000000000D+00
    2.800000000000D+00 0.000000000000D+00-1.257285475731D-08 9.500000000000D+01
    1.944180000000D+05 4.000000000000D+00
13 21  1 26  8  0  0.0 9.006308391690D-05 4.206412995700D-12 0.000000000000D+00
    2.000000000000D+01 1.178125000000D+01 4.696624204679D-09-6.750772917932D-01
    5.904585123062D-07 4.913673852570D-03 6.278976798058D-06 5.153673946381D+03
    2.016000000000D+05-3.539025783539D-08 9.073068661614D-01 8.754432201385D-08
    9.678596509194D-01 2.599375000000D+02 1.035195268518D+00-8.048549540109D-09
    2.167947446570D-10 1.000000000000D+00 2.142000000000D+03 0.000000000000D+00
    2.000000000000D+00 0.000000000000D+00-1.117587089539D-08 2.000000000000D+01
    1.944180000000D+05 4.000000000000D+00
14 21  1 26  8  0  0.0 9.071081876755D-05 4.661160346586D-12 0.000000000000D+00
    1.890000000000D+02 8.231250000000D+01 4.185174329310D-09-2.518723278546D+00
    4.392117261887D-06 3.072834806517D-04 9.762123227119D-06 5.153747001648D+03
    2.016000000000D+05-7.450580596924D-09 2.917865695150D+00-5.587935447693D-09
    9.589846374909D-01 1.878437500000D+02 2.023566877111D+00-7.795681864298D-09
   -1.285767843106D-10 1.000000000000D+00 2.142000000000D+03 0.000000000000D+00
    2.000000000000D+00 0.000000000000D+00-7.916241884232D-09 9.570000000000D+02
    1.944180000000D+05 4.000000000000D+00
15 21  1 26  8  0  0.0-1.737563870847D-04 2.614797267597D-12 0.000000000000D+00
    8.900000000000D+01 1.712500000000D+01 5.474870907492D-09-1.020397641486D+00
    1.022592186928D-06 1.303339470178D-02 7.193535566330D-06 5.153549646378D+03
    2.016000000000D+05 1.639127731323D-07 6.647112839616D-01 3.054738044739D-07
    9.287835334594D-01 2.228750000000D+02 9.630364875467D-01-8.438208628117D-09
    3.632294156774D-10 1.000000000000D+00 2.142000000000D+03 0.000000000000D+00
    2.000000000000D+00 0.000000000000D+00-1.071020960808D-08 8.900000000000D+01
    1.944780000000D+05 4.000000000000D+00
16 21  1 26  8  0  0.0-2.706409431994D-04-5.570655048359D-12 0.000000000000D+00
    1.700000000000D+01 1.004375000000D+02 3.762656729756D-09 8.904685005930D-01
    5.399808287621D-06 1.209930586629D-02 1.087412238121D-05 5.153649074554D+03
    2.016000000000D+05-1.639127731323D-07 2.961867008667D+00 1.210719347000D-07
    9.756244294850D-01 1.774062500000D+02 6.452912541937D-01-7.705678115281D-09
   -2.542963067476D-10 1.000000000000D+00 2.142000000000D+03 0.000000000000D+00
    2.000000000000D+00 0.000000000000D+00-1.024454832077D-08 1.700000000000D+01
    1.944180000000D+05 4.000000000000D+00
